NORAD_CAT_ID,OBJECT_NAME,OBJECT_TYPE,EPOCH,MEAN_MOTION,ECCENTRICITY,INCLINATION,RA_OF_ASC_NODE,ARG_OF_PERICENTER,MEAN_ANOMALY,BSTAR,MEAN_MOTION_DOT,MEAN_MOTION_DDOT,TLE_LINE0,TLE_LINE1,TLE_LINE2,SEMIMAJOR_AXIS,PERIOD,APOGEE,PERIGEE,DECAYED
54072.0,STARLINK-5144,PAYLOAD,2023-09-09 22:25:25,15.08840329,0.0001373,53.2171,116.887,91.8317,268.2833,0.00012024,1.626e-05,0.0,0 STARLINK-5144,1 54072U 22136X   23252.93432710  .00001626  00000-0  12024-3 0  9992,2 54072  53.2171 116.8870 0001373  91.8317 268.2833 15.08840329 49200,6917.879,95.438,540.694,538.795,0.0
54072.0,STARLINK-5144,PAYLOAD,2023-09-10 19:05:27,15.08836659,0.0001367,53.2171,113.0215,90.6512,269.4637,3.8069e-05,3.18e-06,0.0,0 STARLINK-5144,1 54072U 22136X   23253.79545411  .00000318  00000-0  38069-4 0  9995,2 54072  53.2171 113.0215 0001367  90.6512 269.4637 15.08836659 49812,6917.891,95.438,540.701,538.81,0.0
54072.0,STARLINK-5144,PAYLOAD,2023-09-11 07:48:32,15.08840528,0.00013,53.2168,110.6417,83.8824,276.2317,5.0883e-05,5.22e-06,0.0,0 STARLINK-5144,1 54072U 22136X   23254.32537182  .00000522  00000-0  50883-4 0  9996,2 54072  53.2168 110.6417 0001300  83.8824 276.2317 15.08840528 49419,6917.879,95.438,540.643,538.844,0.0
54072.0,STARLINK-5144,PAYLOAD,2023-09-11 20:31:36,15.08847559,0.0001318,53.2166,108.2625,85.2384,274.8759,6.1289e-05,6.88e-06,0.0,0 STARLINK-5144,1 54072U 22136X   23254.85528701  .00000688  00000-0  61289-4 0  9996,2 54072  53.2166 108.2625 0001318  85.2384 274.8759 15.08847559 49973,6917.857,95.437,540.634,538.811,0.0
54072.0,STARLINK-5144,PAYLOAD,2023-09-12 20:22:23,15.08844115,0.0001281,53.2159,103.8029,82.0959,278.0178,7.3186e-05,8.77e-06,0.0,0 STARLINK-5144,1 54072U 22136X   23255.84888838  .00000877  00000-0  73186-4 0  9995,2 54072  53.2159 103.8029 0001281  82.0959 278.0178 15.08844115 49646,6917.868,95.437,540.619,538.847,0.0
54072.0,STARLINK-5144,PAYLOAD,2023-09-12 23:33:09,15.08849164,0.0001266,53.2159,103.2075,83.4959,276.6177,0.00011301,1.512e-05,0.0,0 STARLINK-5144,1 54072U 22136X   23255.98136367  .00001512  00000-0  11301-3 0  9990,2 54072  53.2159 103.2075 0001266  83.4959 276.6177 15.08849164 50148,6917.852,95.437,540.593,538.842,0.0
54072.0,STARLINK-5144,PAYLOAD,2023-09-13 18:37:47,15.08837185,0.0001449,53.2175,99.6393,92.4367,267.6791,0.00018508,2.659e-05,0.0,0 STARLINK-5144,1 54072U 22136X   23256.77624789  .00002659  00000-0  18508-3 0  9997,2 54072  53.2175  99.6393 0001449  92.4367 267.6791 15.08837185 50268,6917.889,95.438,540.756,538.752,0.0
54072.0,STARLINK-5144,PAYLOAD,2023-09-13 20:13:10,15.08849164,0.0001437,53.2173,99.3406,88.7932,271.3225,3.7651e-05,3.11e-06,0.0,0 STARLINK-5144,1 54072U 22136X   23256.84248328  .00000311  00000-0  37651-4 0  9990,2 54072  53.2173  99.3406 0001437  88.7932 271.3225 15.08849164 49791,6917.852,95.437,540.711,538.723,0.0
54072.0,STARLINK-5144,PAYLOAD,2023-09-13 23:23:56,15.08852308,0.0001476,53.2172,98.7455,88.159,271.9571,4.3487e-06,-2.19e-06,0.0,0 STARLINK-5144,1 54072U 22136X   23256.97496168 -.00000219  00000-0  43487-5 0  9994,2 54072  53.2172  98.7455 0001476  88.1590 271.9571 15.08852308 50295,6917.843,95.437,540.729,538.687,0.0
54072.0,STARLINK-5144,PAYLOAD,2023-09-14 18:28:35,15.08836372,0.0001332,53.2174,95.1759,93.8855,266.2289,-4.9823e-05,-1.081e-05,0.0,0 STARLINK-5144,1 54072U 22136X   23257.76985527 -.00001081  00000-0 -49823-4 0  9992,2 54072  53.2174  95.1759 0001332  93.8855 266.2289 15.08836372 50413,6917.891,95.438,540.678,538.835,0.0
54072.0,STARLINK-5144,PAYLOAD,2023-09-14 20:03:58,15.0883369,0.0001326,53.2174,94.8804,92.7454,267.369,-7.3895e-05,-1.464e-05,0.0,0 STARLINK-5144,1 54072U 22136X   23257.83609732 -.00001464  00000-0 -73895-4 0  9992,2 54072  53.2174  94.8804 0001326  92.7454 267.3690 15.08833690 49940,6917.9,95.438,540.682,538.847,0.0
54072.0,STARLINK-5144,PAYLOAD,2023-09-15 13:33:13,15.08839196,0.0001214,53.2171,91.6091,87.7607,272.3524,-1.5644e-05,-5.37e-06,0.0,0 STARLINK-5144,1 54072U 22136X   23258.56473498 -.00000537  00000-0 -15644-4 0  9999,2 54072  53.2171  91.6091 0001214  87.7607 272.3524 15.08839196 50053,6917.883,95.438,540.588,538.908,0.0
54072.0,STARLINK-5144,PAYLOAD,2023-09-15 18:19:22,15.08843398,0.0001258,53.2169,90.7177,89.3369,270.7767,3.1727e-05,2.17e-06,0.0,0 STARLINK-5144,1 54072U 22136X   23258.76345101  .00000217  00000-0  31727-4 0  9993,2 54072  53.2169  90.7177 0001258  89.3369 270.7767 15.08843398 50562,6917.87,95.437,540.605,538.865,0.0
54072.0,STARLINK-5144,PAYLOAD,2023-09-16 11:48:37,15.08830109,0.0001324,53.2178,87.4485,96.7022,263.4121,0.0001179,1.588e-05,0.0,0 STARLINK-5144,1 54072U 22136X   23259.49209889  .00001588  00000-0  11790-3 0  9995,2 54072  53.2178  87.4485 0001324  96.7022 263.4121 15.08830109 50197,6917.911,95.438,540.692,538.86,0.0
54072.0,STARLINK-5144,PAYLOAD,2023-09-16 18:10:10,15.08828121,0.0001343,53.2182,86.2592,96.8207,263.2938,7.6609e-05,9.31e-06,0.0,0 STARLINK-5144,1 54072U 22136X   23259.75706358  .00000931  00000-0  76609-4 0  9999,2 54072  53.2182  86.2592 0001343  96.8207 263.2938 15.08828121 50718,6917.917,95.438,540.711,538.853,0.0
54072.0,STARLINK-5144,PAYLOAD,2023-09-17 13:14:47,15.08843962,0.0001404,53.2189,82.6906,93.9438,266.1715,6.9972e-05,8.26e-06,0.0,0 STARLINK-5144,1 54072U 22136X   23260.55193713  .00000826  00000-0  69972-4 0  9992,2 54072  53.2189  82.6906 0001404  93.9438 266.1715 15.08843962 50351,6917.868,95.437,540.705,538.762,0.0
54072.0,STARLINK-5144,PAYLOAD,2023-09-17 18:00:56,15.08846958,0.0001409,53.2191,81.7986,94.3465,265.7689,9.2255e-05,1.181e-05,0.0,0 STARLINK-5144,1 54072U 22136X   23260.75065412  .00001181  00000-0  92255-4 0  9993,2 54072  53.2191  81.7986 0001409  94.3465 265.7689 15.08846958 50861,6917.859,95.437,540.699,538.749,0.0
54072.0,STARLINK-5144,PAYLOAD,2023-09-18 05:08:38,15.08841925,0.0001336,53.2184,79.7162,87.2014,272.9132,4.0407e-05,3.55e-06,0.0,0 STARLINK-5144,1 54072U 22136X   23261.21433808  .00000355  00000-0  40407-4 0  9997,2 54072  53.2184  79.7162 0001336  87.2014 272.9132 15.08841925 50936,6917.875,95.437,540.664,538.815,0.0
54072.0,STARLINK-5144,PAYLOAD,2023-09-18 11:30:11,15.08837196,0.0001495,53.2186,78.5269,85.7435,274.3728,0.00011931,1.611e-05,0.0,0 STARLINK-5144,1 54072U 22136X   23261.47930061  .00001611  00000-0  11931-3 0  9993,2 54072  53.2186  78.5269 0001495  85.7435 274.3728 15.08837196 50492,6917.889,95.438,540.788,538.72,0.0
54072.0,STARLINK-5144,PAYLOAD,2023-09-18 19:27:07,15.08840686,0.0001442,53.2183,77.0394,83.4868,276.6288,0.00010362,1.362e-05,0.0,0 STARLINK-5144,1 54072U 22136X   23261.81049953  .00001362  00000-0  10362-3 0  9992,2 54072  53.2183  77.0394 0001442  83.4868 276.6288 15.08840686 50549,6917.878,95.438,540.741,538.746,0.0
54072.0,STARLINK-5144,PAYLOAD,2023-09-19 17:42:30,15.08849881,0.0001322,53.2163,72.8763,86.3829,273.7314,0.00011039,1.47e-05,0.0,0 STARLINK-5144,1 54072U 22136X   23262.73785164  .00001470  00000-0  11039-3 0  9997,2 54072  53.2163  72.8763 0001322  86.3829 273.7314 15.08849881 51169,6917.85,95.437,540.63,538.801,0.0
54072.0,STARLINK-5144,PAYLOAD,2023-09-20 11:11:45,15.08835212,0.0001424,53.2163,69.6058,88.907,271.2085,5.534e-05,5.93e-06,0.0,0 STARLINK-5144,1 54072U 22136X   23263.46650083  .00000593  00000-0  55340-4 0  9998,2 54072  53.2163  69.6058 0001424  88.9070 271.2085 15.08835212 51272,6917.895,95.438,540.745,538.775,0.0
54072.0,STARLINK-5144,PAYLOAD,2023-09-20 17:33:18,15.08833184,0.0001386,53.2177,68.4162,93.0806,267.0345,1.7196e-05,-1.4e-07,0.0,0 STARLINK-5144,1 54072U 22136X   23263.73146335 -.00000014  00000-0  17196-4 0  9994,2 54072  53.2177  68.4162 0001386  93.0806 267.0345 15.08833184 50830,6917.901,95.438,540.725,538.807,0.0
54072.0,STARLINK-5144,PAYLOAD,2023-09-21 11:02:32,15.08841065,0.0001391,53.2175,65.1441,96.305,263.81,0.00010136,1.326e-05,0.0,0 STARLINK-5144,1 54072U 22136X   23264.46010143  .00001326  00000-0  10136-3 0  9994,2 54072  53.2175  65.1441 0001391  96.3050 263.8100 15.08841065 50947,6917.877,95.437,540.704,538.78,0.0
54072.0,STARLINK-5144,PAYLOAD,2023-09-21 17:24:04,15.08849508,0.000137,53.2174,63.9551,96.2551,263.8598,0.00018955,2.731e-05,0.0,0 STARLINK-5144,1 54072U 22136X   23264.72505745  .00002731  00000-0  18955-3 0  9998,2 54072  53.2174  63.9551 0001370  96.2551 263.8598 15.08849508 51465,6917.851,95.437,540.664,538.769,0.0
54072.0,STARLINK-5144,PAYLOAD,2023-09-22 10:53:19,15.08839366,0.0001252,53.2178,60.6841,100.8964,259.2169,0.0001853,2.662e-05,0.0,0 STARLINK-5144,1 54072U 22136X   23265.45370305  .00002662  00000-0  18530-3 0  9993,2 54072  53.2178  60.6841 0001252 100.8964 259.2169 15.08839366 51570,6917.882,95.438,540.613,538.881,0.0
54072.0,STARLINK-5144,PAYLOAD,2023-09-22 17:14:52,15.08852416,0.0001279,53.2175,59.4948,99.9059,260.2078,0.00041689,6.355e-05,0.0,0 STARLINK-5144,1 54072U 22136X   23265.71865869  .00006355  00000-0  41689-3 0  9990,2 54072  53.2175  59.4948 0001279  99.9059 260.2078 15.08852416 51610,6917.842,95.437,540.592,538.823,0.0
54072.0,STARLINK-5144,PAYLOAD,2023-09-23 02:47:10,15.08849994,0.0001261,53.2174,57.7107,99.1509,260.9626,0.00031938,4.8e-05,0.0,0 STARLINK-5144,1 54072U 22136X   23266.11609814  .00004800  00000-0  31938-3 0  9990,2 54072  53.2174  57.7107 0001261  99.1509 260.9626 15.08849994 51679,6917.85,95.437,540.587,538.843,0.0
54072.0,STARLINK-5144,PAYLOAD,2023-09-23 13:54:53,15.08838039,0.0001435,53.2182,55.6296,102.5459,257.5694,6.1072e-05,6.84e-06,0.0,0 STARLINK-5144,1 54072U 22136X   23266.57978051  .00000684  00000-0  61072-4 0  9991,2 54072  53.2182  55.6296 0001435 102.5459 257.5694 15.08838039 51260,6917.886,95.438,540.744,538.759,0.0
54072.0,STARLINK-5144,PAYLOAD,2023-09-23 17:05:39,15.088422,0.0001361,53.2186,55.0377,102.0666,258.0479,6.9645e-05,8.21e-06,0.0,0 STARLINK-5144,1 54072U 22136X   23266.71226035  .00000821  00000-0  69645-4 0  9992,2 54072  53.2186  55.0377 0001361 102.0666 258.0479 15.08842200 51768,6917.874,95.437,540.68,538.797,0.0
